STARLINK-31397          
1 59540U 24074G   26068.18224681  .00011242  00000+0  41827-3 0  9998
2 59540  43.0017 346.6585 0001248  41.9916 318.1032 15.27512537105936
FLOCK 4G-7              
1 62624U 25009R   26068.79996108  .00011422  00000+0  43168-3 0  9991
2 62624  97.3984 150.8270 0001396 336.9783  23.1393 15.27141471 63725
